GLOBALSTAR M067         
1 32263U 07048A   25343.50101463 -.00000073  00000+0  17829-3 0  9992
2 32263  51.9724 242.9448 0001734  26.5781 144.3756 12.40682620831242
GLOBALSTAR M070         
1 32264U 07048B   25343.12833363 -.00000075  00000+0  16012-3 0  9997
2 32264  51.9767 315.5570 0000290  77.0350   3.9851 12.62327053835769
GLOBALSTAR M066         
1 32265U 07048C   25343.49395961 -.00000086  00000+0  74074-4 0  9990
2 32265  51.9588 242.4674 0005431  14.5011 157.4078 12.30382793836872
GLOBALSTAR M068         
1 32266U 07048D   25343.46065529 -.00000064  00000+0  22134-3 0  9997
2 32266  51.9868 127.9576 0001850 134.0869 265.3903 12.62834980839708
GLOBALSTAR M079         
1 37188U 10054A   25343.43398294 -.00000081  00000+0  12524-3 0  9992
2 37188  52.0056 326.3074 0000396  11.8938 153.2864 12.62269060698589
GLOBALSTAR M074         
1 37189U 10054B   25343.26870153 -.00000087  00000+0  92566-4 0  9994
2 37189  52.0033 326.1056 0000507  54.4068 319.1059 12.62263978699171
GLOBALSTAR M076         
1 37190U 10054C   25343.15165360 -.00000088  00000+0  86230-4 0  9993
2 37190  52.0046 326.6503 0000550  35.0694  45.0972 12.62267887698875
GLOBALSTAR M077         
1 37191U 10054D   25343.22391226 -.00000067  00000+0  19703-3 0  9991
2 37191  52.0110 301.8412 0000711  10.9987  93.3443 11.68138648698942
